NORAD_CAT_ID,OBJECT_NAME,OBJECT_TYPE,EPOCH,MEAN_MOTION,ECCENTRICITY,INCLINATION,RA_OF_ASC_NODE,ARG_OF_PERICENTER,MEAN_ANOMALY,BSTAR,MEAN_MOTION_DOT,MEAN_MOTION_DDOT,TLE_LINE0,TLE_LINE1,TLE_LINE2,SEMIMAJOR_AXIS,PERIOD,APOGEE,PERIGEE,DECAYED
52622.0,STARLINK-4008,PAYLOAD,2022-06-08 20:00:01,15.49873893,0.0001215,53.216,317.2212,79.5646,17.0997,0.00071706,0.0004044,0.0,0 STARLINK-4008,1 52622U 22052AA  22159.83334491  .00040440  00000-0  71706-3 0  9998,2 52622  53.2160 317.2212 0001215  79.5646  17.0997 15.49873893  4307,6795.232,92.911,417.922,416.271,0.0
52622.0,STARLINK-4008,PAYLOAD,2022-06-08 22:00:01,15.49875493,0.0001183,53.2156,316.8229,78.3492,123.6085,0.00083334,0.00047114,0.0,0 STARLINK-4008,1 52622U 22052AA  22159.91668981  .00047114  00000-0  83334-3 0  9996,2 52622  53.2156 316.8229 0001183  78.3492 123.6085 15.49875493  1302,6795.227,92.911,417.896,416.288,0.0
52622.0,STARLINK-4008,PAYLOAD,2022-06-09 14:00:01,15.49929305,0.0001136,53.2156,313.6355,88.7341,235.0179,-0.00041676,-0.00024069,0.0,0 STARLINK-4008,1 52622U 22052AA  22160.58334491 -.00024069  00000-0 -41676-3 0  9996,2 52622  53.2156 313.6355 0001136  88.7341 235.0179 15.49929305  1307,6795.07,92.907,417.707,416.163,0.0
52622.0,STARLINK-4008,PAYLOAD,2022-06-09 20:00:01,15.49894402,0.0001162,53.2159,312.4451,79.2506,200.2228,0.00094296,0.0005344999999999,0.0,0 STARLINK-4008,1 52622U 22052AA  22160.83334491  .00053450  00000-0  94296-3 0  9994,2 52622  53.2159 312.4451 0001162  79.2506 200.2228 15.49894402  4458,6795.172,92.91,417.826,416.247,0.0
52622.0,STARLINK-4008,PAYLOAD,2022-06-09 22:00:00,15.49909613,0.0001085999999999,53.2157,312.0479,75.9553,308.7497,0.00056429,0.00031733,0.0,0 STARLINK-4008,1 52622U 22052AA  22160.91667824  .00031733  00000-0  56429-3 0  9998,2 52622  53.2157 312.0479 0001086  75.9553 308.7497 15.49909613  1306,6795.127,92.909,417.73,416.254,0.0
52622.0,STARLINK-4008,PAYLOAD,2022-06-10 04:00:00,15.50049289,0.0001016,53.2168,310.8542,80.6636,259.7408,-0.0088447,-0.00475843,0.0,0 STARLINK-4008,1 52622U 22052AA  22161.16667824 -.00475843  00000-0 -88447-2 0  9996,2 52622  53.2168 310.8542 0001016  80.6636 259.7408 15.50049289  4512,6794.719,92.9,417.274,415.894,0.0
52622.0,STARLINK-4008,PAYLOAD,2022-06-10 12:00:02,15.49809813,0.0001099,53.2171,309.2662,79.484,321.8744,-0.01592,-0.00825014,0.0,0 STARLINK-4008,1 52622U 22052AA  22161.50002315 -.00825014  00000-0 -15920-1 0  9996,2 52622  53.2171 309.2662 0001099  79.4840 321.8744 15.49809813  4569,6795.419,92.915,418.031,416.537,0.0
52622.0,STARLINK-4008,PAYLOAD,2022-06-10 14:00:01,15.49666949,0.0001291,53.2174,308.8701,79.0721,67.4019,-0.016196,-0.00834255,0.0,0 STARLINK-4008,1 52622U 22052AA  22161.58334491 -.00834255  00000-0 -16196-1 0  9990,2 52622  53.2174 308.8701 0001291  79.0721  67.4019 15.49666949  1307,6795.837,92.923,418.579,416.824,0.0
52622.0,STARLINK-4008,PAYLOAD,2022-06-10 22:00:00,15.49070069,0.0001308,53.2172,307.282,100.5772,106.1818,-0.016528,-0.00833585,0.0,0 STARLINK-4008,1 52622U 22052AA  22161.91667824 -.00833585  00000-0 -16528-1 0  9990,2 52622  53.2172 307.2820 0001308 100.5772 106.1818 15.49070069  1305,6797.581999999999,92.959,420.336,418.5580000000001,0.0
52622.0,STARLINK-4008,PAYLOAD,2022-06-11 04:00:00,15.48622138,0.0001240999999999,53.2175,306.0894,80.5602,80.9439,-0.016787,-0.00833357,0.0,0 STARLINK-4008,1 52622U 22052AA  22162.16667824 -.00833357  00000-0 -16787-1 0  9992,2 52622  53.2175 306.0894 0001241  80.5602  80.9439 15.48622138  4660,6798.893,92.986,421.602,419.914,0.0
52622.0,STARLINK-4008,PAYLOAD,2022-06-11 22:00:00,15.47280433,0.0001036,53.2173,302.523,95.0429,288.2702,-0.017605,-0.00833678,0.0,0 STARLINK-4008,1 52622U 22052AA  22162.91667824 -.00833678  00000-0 -17605-1 0  9991,2 52622  53.2173 302.5230 0001036  95.0429 288.2702 15.47280433  1304,6802.823,93.067,425.392,423.983,0.0
52622.0,STARLINK-4008,PAYLOAD,2022-06-12 04:00:00,15.46832301,0.0001083,53.2176,301.3336,84.6364,251.8088,-0.0178949999999999,-0.00834225,0.0,0 STARLINK-4008,1 52622U 22052AA  22163.16667824 -.00834225  00000-0 -17895-1 0  9999,2 52622  53.2176 301.3336 0001083  84.6364 251.8088 15.46832301  4824,6804.137,93.093,426.73800000000006,425.265,0.0
52622.0,STARLINK-4008,PAYLOAD,2022-06-12 14:00:01,15.46085193,0.0001358,53.2175,299.357,61.8338,75.5983,-0.018316,-0.00832219,0.0,0 STARLINK-4008,1 52622U 22052AA  22163.58334491 -.00832219  00000-0 -18316-1 0  9996,2 52622  53.2175 299.3570 0001358  61.8338  75.5983 15.46085193  1306,6806.328,93.138,429.11800000000005,427.269,0.0
52622.0,STARLINK-4008,PAYLOAD,2022-06-12 22:00:00,15.45490807,0.0001283,53.2171,297.7768,82.9476,110.4666,-0.018781,-0.00835656,0.0,0 STARLINK-4008,1 52622U 22052AA  22163.91667824 -.00835656  00000-0 -18781-1 0  9996,2 52622  53.2171 297.7768 0001283  82.9476 110.4666 15.45490807  1305,6808.073,93.174,430.812,429.065,0.0
52622.0,STARLINK-4008,PAYLOAD,2022-06-13 04:00:00,15.45040477,0.0001244,53.2174,296.5908,72.1161,72.8168,-0.018962,-0.00831134,0.0,0 STARLINK-4008,1 52622U 22052AA  22164.16667824 -.00831134  00000-0 -18962-1 0  9992,2 52622  53.2174 296.5908 0001244  72.1161  72.8168 15.45040477  4978,6809.396,93.201,432.108,430.414,0.0
52622.0,STARLINK-4008,PAYLOAD,2022-06-13 14:00:01,15.44294815,0.0001248,53.2175,294.6196,69.544,233.6861,-0.019458,-0.00831322,0.0,0 STARLINK-4008,1 52622U 22052AA  22164.58334491 -.00831322  00000-0 -19458-1 0  9999,2 52622  53.2175 294.6196 0001248  69.5440 233.6861 15.44294815  1308,6811.5880000000025,93.246,434.30300000000005,432.603,0.0
52622.0,STARLINK-4008,PAYLOAD,2022-06-13 22:00:00,15.43700512,0.0001068,53.2173,293.0435,87.5562,269.5046,-0.019946,-0.00845555,0.0,0 STARLINK-4008,1 52622U 22052AA  22164.91667824 -.00845555  00000-0 -19946-1 0  9990,2 52622  53.2173 293.0435 0001068  87.5562 269.5046 15.43700512  1308,6813.3359999999975,93.282,435.929,434.473,0.0
52622.0,STARLINK-4008,PAYLOAD,2022-06-14 14:00:01,15.42505646,0.0001281999999999,53.2173,289.8951,64.081,38.4929,-0.020731,-0.00844106,0.0,0 STARLINK-4008,1 52622U 22052AA  22165.58334491 -.00844106  00000-0 -20731-1 0  9990,2 52622  53.2173 289.8951 0001282  64.0810  38.4929 15.42505646  1301,6816.854,93.355,439.593,437.845,0.0
52622.0,STARLINK-4008,PAYLOAD,2022-06-14 22:00:00,15.41909167,0.0001433,53.2172,288.323,56.8831,97.3715,-0.021152,-0.00844141,0.0,0 STARLINK-4008,1 52622U 22052AA  22165.91667824 -.00844141  00000-0 -21152-1 0  9993,2 52622  53.2172 288.3230 0001433  56.8831  97.3715 15.41909167  1306,6818.611999999999,93.391,441.454,439.5,0.0
52622.0,STARLINK-4008,PAYLOAD,2022-06-15 04:00:00,15.41459755,0.0001252999999999,53.2174,287.1436,61.8431,40.7028,-0.021402,-0.00841508,0.0,0 STARLINK-4008,1 52622U 22052AA  22166.16667824 -.00841508  00000-0 -21402-1 0  9993,2 52622  53.2174 287.1436 0001253  61.8431  40.7028 15.41459755  5288,6819.937,93.418,442.657,440.948,0.0
52622.0,STARLINK-4008,PAYLOAD,2022-06-15 14:00:01,15.40713448,0.0001419999999999,53.2173,285.1833,65.0765,190.3886,-0.021921,-0.00840767,0.0,0 STARLINK-4008,1 52622U 22052AA  22166.58334491 -.00840767  00000-0 -21921-1 0  9992,2 52622  53.2173 285.1833 0001420  65.0765 190.3886 15.40713448  1302,6822.139,93.463,444.973,443.036,0.0
52622.0,STARLINK-4008,PAYLOAD,2022-06-15 22:00:00,15.40120359,0.0001167,53.2174,283.6152,87.9472,217.0462,-0.022531,-0.00846749,0.0,0 STARLINK-4008,1 52622U 22052AA  22166.91667824 -.00846749  00000-0 -22531-1 0  9992,2 52622  53.2174 283.6152 0001167  87.9472 217.0462 15.40120359  1306,6823.891,93.499,446.552,444.959,0.0
52622.0,STARLINK-4008,PAYLOAD,2022-06-16 02:00:01,15.39820324,0.0001266,53.2176,282.8306,67.9932,81.497,-0.022654,-0.00843238,0.0,0 STARLINK-4008,1 52622U 22052AA  22167.08334491 -.00843238  00000-0 -22654-1 0  9998,2 52622  53.2176 282.8306 0001266  67.9932  81.4970 15.39820324  1303,6824.776999999999,93.517,447.506,445.778,0.0
52622.0,STARLINK-4008,PAYLOAD,2022-06-19 14:00:01,15.33555181,0.0001459,53.2176,266.4639,51.4848,31.0023,-0.027812,-0.00844617,0.0,0 STARLINK-4008,1 52622U 22052AA  22170.58334491 -.00844617  00000-0 -27812-1 0  9990,2 52622  53.2176 266.4639 0001459  51.4848  31.0023 15.33555181  1308,6843.352,93.899,466.216,464.219,0.0
52622.0,STARLINK-4008,PAYLOAD,2022-06-19 22:00:00,15.32956932,0.0001296999999999,53.2173,264.9121,67.9584,55.4543,-0.028254,-0.00842076,0.0,0 STARLINK-4008,1 52622U 22052AA  22170.91667824 -.00842076  00000-0 -28254-1 0  9994,2 52622  53.2173 264.9121 0001297  67.9584  55.4543 15.32956932  1308,6845.1330000000025,93.936,467.886,466.11,0.0
52622.0,STARLINK-4008,PAYLOAD,2022-06-20 10:00:00,15.32061022,0.0001264,53.2174,262.5879,59.5437,303.9109,-0.028999,-0.00840296,0.0,0 STARLINK-4008,1 52622U 22052AA  22171.41667824 -.00840296  00000-0 -28999-1 0  9998,2 52622  53.2174 262.5879 0001264  59.5437 303.9109 15.32061022  6098,6847.801,93.991,470.532,468.8,0.0
52622.0,STARLINK-4008,PAYLOAD,2022-06-20 14:00:01,15.31762565,0.0001564,53.2174,261.8157,58.7526,144.3566,-0.029274,-0.00840376,0.0,0 STARLINK-4008,1 52622U 22052AA  22171.58334491 -.00840376  00000-0 -29274-1 0  9993,2 52622  53.2174 261.8157 0001564  58.7526 144.3566 15.31762565  1304,6848.69,94.009,471.627,469.484,0.0
52622.0,STARLINK-4008,PAYLOAD,2022-06-20 22:00:00,15.31167919,0.0001343,53.2173,260.2681,78.8516,163.0307,-0.029981,-0.00844389,0.0,0 STARLINK-4008,1 52622U 22052AA  22171.91667824 -.00844389  00000-0 -29981-1 0  9992,2 52622  53.2173 260.2681 0001343  78.8516 163.0307 15.31167919  1308,6850.464,94.046,473.249,471.409,0.0
52622.0,STARLINK-4008,PAYLOAD,2022-06-21 12:00:00,15.30120169,0.0001508,53.2174,257.5658,62.9615,155.0485,-0.030748,-0.00838612,0.0,0 STARLINK-4008,1 52622U 22052AA  22172.50001157 -.00838612  00000-0 -30748-1 0  9994,2 52622  53.2174 257.5658 0001508  62.9615 155.0485 15.30120169  6251,6853.59,94.11,476.489,474.422,0.0
